start=new Date('2021-10-31T00:00:00.000Z').valueOf();
sats=[{"INCLINATION":"53.0558","EPOCH":"2021-10-30T11:09:47.356416","PERIAPSIS":"546.016","MEAN_MOTION_DOT":"0.00001603","PERIOD":"95.592","ELEMENT_SET_NO":"999","CLASSIFICATION_TYPE":"U","BSTAR":"0.00012647000000","OBJECT_NAME":"STARLINK-2403","MEAN_ANOMALY":"291.2594","REF_FRAME":"TEME","SITE":"AFETR","REV_AT_EPOCH":"3667","TLE_LINE2":"2 47820  53.0558 204.9052 0001722  68.8579 291.2594 15.06401494 36674","MEAN_MOTION":"15.06401494","GP_ID":"188514676","COUNTRY_CODE":"US","APOAPSIS":"548.402","DECAY_DATE":null,"OBJECT_TYPE":"PAYLOAD","ECCENTRICITY":"0.00017220","EPHEMERIS_TYPE":"0","SEMIMAJOR_AXIS":"6925.344","LAUNCH_DATE":"2021-03-11","MEAN_MOTION_DDOT":"0.0000000000000","OBJECT_ID":"2021-018AK","NORAD_CAT_ID":"47820","MEAN_ELEMENT_THEORY":"SGP4","RCS_SIZE":"LARGE","CENTER_NAME":"EARTH","TLE_LINE1":"1 47820U 21018AK  21303.46513144  .00001603  00000-0  12647-3 0  9993","TIME_SYSTEM":"UTC","RA_OF_ASC_NODE":"204.9052","FILE":"3192905","ARG_OF_PERICENTER":"68.8579"},{"RCS_SIZE":"LARGE","CENTER_NAME":"EARTH","NORAD_CAT_ID":"47821","MEAN_ELEMENT_THEORY":"SGP4","FILE":"3192905","ARG_OF_PERICENTER":"71.3413","TLE_LINE1":"1 47821U 21018AL  21303.44299572  .00007156  00000-0  49864-3 0  9998","RA_OF_ASC_NODE":"195.0086","TIME_SYSTEM":"UTC","DECAY_DATE":null,"OBJECT_TYPE":"PAYLOAD","ECCENTRICITY":"0.00018720","SEMIMAJOR_AXIS":"6925.305","LAUNCH_DATE":"2021-03-11","EPHEMERIS_TYPE":"0","OBJECT_ID":"2021-018AL","MEAN_MOTION_DDOT":"0.0000000000000","REF_FRAME":"TEME","SITE":"AFETR","MEAN_ANOMALY":"288.7779","MEAN_MOTION":"15.06414336","REV_AT_EPOCH":"3675","TLE_LINE2":"2 47821  53.0549 195.0086 0001872  71.3413 288.7779 15.06414336 36758","APOAPSIS":"548.466","GP_ID":"188514926","COUNTRY_CODE":"US","PERIAPSIS":"545.873","MEAN_MOTION_DOT":"0.00007156","PERIOD":"95.591","ELEMENT_SET_NO":"999","EPOCH":"2021-10-30T10:37:54.830208","INCLINATION":"53.0549","CLASSIFICATION_TYPE":"U","OBJECT_NAME":"STARLINK-2406","BSTAR":"0.00049864000000"},{"DECAY_DATE":null,"ECCENTRICITY":"0.00016640","OBJECT_TYPE":"PAYLOAD","EPHEMERIS_TYPE":"0","LAUNCH_DATE":"2021-03-11","SEMIMAJOR_AXIS":"6925.343","MEAN_MOTION_DDOT":"0.0000000000000","OBJECT_ID":"2021-018AM","MEAN_ELEMENT_THEORY":"SGP4","NORAD_CAT_ID":"47822","CENTER_NAME":"EARTH","RCS_SIZE":"LARGE","TIME_SYSTEM":"UTC","RA_OF_ASC_NODE":"204.9459","TLE_LINE1":"1 47822U 21018AM  21303.45407624  .00001946  00000-0  14950-3 0  9998","ARG_OF_PERICENTER":"70.9001","FILE":"3192905","EPOCH":"2021-10-30T10:53:52.187136","INCLINATION":"53.0552","ELEMENT_SET_NO":"999","PERIOD":"95.592","PERIAPSIS":"546.055","MEAN_MOTION_DOT":"0.00001946","CLASSIFICATION_TYPE":"U","BSTAR":"0.00014950000000","OBJECT_NAME":"STARLINK-2407","MEAN_ANOMALY":"289.2168","SITE":"AFETR","REF_FRAME":"TEME","REV_AT_EPOCH":"3662","TLE_LINE2":"2 47822  53.0552 204.9459 0001664  70.9001 289.2168 15.06401892 36621","MEAN_MOTION":"15.06401892","COUNTRY_CODE":"US","GP_ID":"188516177","APOAPSIS":"548.360"},{"LAUNCH_DATE":"2021-03-11","SEMIMAJOR_AXIS":"6925.343","EPHEMERIS_TYPE":"0","OBJECT_ID":"2021-018AN","MEAN_MOTION_DDOT":"0.0000000000000","DECAY_DATE":null,"ECCENTRICITY":"0.00018530","OBJECT_TYPE":"PAYLOAD","ARG_OF_PERICENTER":"69.1204","FILE":"3192905","RA_OF_ASC_NODE":"194.5841","TIME_SYSTEM":"UTC","TLE_LINE1":"1 47823U 21018AN  21303.53608610  .00001396  00000-0  11259-3 0  9994","CENTER_NAME":"EARTH","RCS_SIZE":"LARGE","MEAN_ELEMENT_THEORY":"SGP4","NORAD_CAT_ID":"47823","CLASSIFICATION_TYPE":"U","OBJECT_NAME":"STARLINK-2408","BSTAR":"0.00011259000000","ELEMENT_SET_NO":"999","PERIOD":"95.592","PERIAPSIS":"545.925","MEAN_MOTION_DOT":"0.00001396","INCLINATION":"53.0553","EPOCH":"2021-10-30T12:51:57.839040","APOAPSIS":"548.491","COUNTRY_CODE":"US","GP_ID":"188516426","SITE":"AFETR","REF_FRAME":"TEME","MEAN_ANOMALY":"290.9983","MEAN_MOTION":"15.06401831","TLE_LINE2":"2 47823  53.0553 194.5841 0001853  69.1204 290.9983 15.06401831 36770","REV_AT_EPOCH":"3677"},{"NORAD_CAT_ID":"47824","MEAN_ELEMENT_THEORY":"SGP4","CENTER_NAME":"EARTH","RCS_SIZE":"LARGE","RA_OF_ASC_NODE":"195.2412","TIME_SYSTEM":"UTC","TLE_LINE1":"1 47824U 21018AP  21303.39233605  .00001480  00000-0  11821-3 0  9996","ARG_OF_PERICENTER":"73.1102","FILE":"3192905","DECAY_DATE":null,"ECCENTRICITY":"0.00018150","OBJECT_TYPE":"PAYLOAD","EPHEMERIS_TYPE":"0","SEMIMAJOR_AXIS":"6925.349","LAUNCH_DATE":"2021-03-11","MEAN_MOTION_DDOT":"0.0000000000000","OBJECT_ID":"2021-018AP","MEAN_ANOMALY":"287.0086","SITE":"AFETR","REF_FRAME":"TEME","TLE_LINE2":"2 47824  53.0539 195.2412 0001815  73.1102 287.0086 15.06399979 36744","REV_AT_EPOCH":"3674","MEAN_MOTION":"15.06399979","COUNTRY_CODE":"US","GP_ID":"188515176","APOAPSIS":"548.471","EPOCH":"2021-10-30T09:24:57.834720","INCLINATION":"53.0539","ELEMENT_SET_NO":"999","PERIOD":"95.592","PERIAPSIS":"545.957","MEAN_MOTION_DOT":"0.00001480","CLASSIFICATION_TYPE":"U","BSTAR":"0.00011821000000","OBJECT_NAME":"STARLINK-2409"},{"GP_ID":"188515426","COUNTRY_CODE":"US","APOAPSIS":"548.382","MEAN_ANOMALY":"278.3812","REF_FRAME":"TEME","SITE":"AFETR","REV_AT_EPOCH":"3675","TLE_LINE2":"2 47825  53.0560 195.1321 0001687  81.7368 278.3812 15.06399840 36751","MEAN_MOTION":"15.06399840","CLASSIFICATION_TYPE":"U","BSTAR":"0.00015235000000","OBJECT_NAME":"STARLINK-2410","EPOCH":"2021-10-30T09:51:30.286080","INCLINATION":"53.0560","MEAN_MOTION_DOT":"0.00001988","PERIAPSIS":"546.046","ELEMENT_SET_NO":"999","PERIOD":"95.592","TLE_LINE1":"1 47825U 21018AQ  21303.41076720  .00001988  00000-0  15235-3 0  9999","RA_OF_ASC_NODE":"195.1321","TIME_SYSTEM":"UTC","FILE":"3192905","ARG_OF_PERICENTER":"81.7368","MEAN_ELEMENT_THEORY":"SGP4","NORAD_CAT_ID":"47825","RCS_SIZE":"LARGE","CENTER_NAME":"EARTH","EPHEMERIS_TYPE":"0","LAUNCH_DATE":"2021-03-11","SEMIMAJOR_AXIS":"6925.349","MEAN_MOTION_DDOT":"0.0000000000000","OBJECT_ID":"2021-018AQ","DECAY_DATE":null,"OBJECT_TYPE":"PAYLOAD","ECCENTRICITY":"0.00016870"},{"TLE_LINE1":"1 47826U 21018AR  21303.40708052  .00001045  00000-0  89042-4 0  9991","RA_OF_ASC_NODE":"195.1654","TIME_SYSTEM":"UTC","FILE":"3192905","ARG_OF_PERICENTER":"68.7965","NORAD_CAT_ID":"47826","MEAN_ELEMENT_THEORY":"SGP4","RCS_SIZE":"LARGE","CENTER_NAME":"EARTH","EPHEMERIS_TYPE":"0","LAUNCH_DATE":"2021-03-11","SEMIMAJOR_AXIS":"6925.340","MEAN_MOTION_DDOT":"0.0000000000000","OBJECT_ID":"2021-018AR","DECAY_DATE":null,"OBJECT_TYPE":"PAYLOAD","ECCENTRICITY":"0.00019790","GP_ID":"188515678","COUNTRY_CODE":"US","APOAPSIS":"548.576","MEAN_ANOMALY":"291.3235","REF_FRAME":"TEME","SITE":"AFETR","TLE_LINE2":"2 47826  53.0554 195.1654 0001979  68.7965 291.3235 15.06402725 36757","REV_AT_EPOCH":"3675","MEAN_MOTION":"15.06402725","CLASSIFICATION_TYPE":"U","BSTAR":"0.00008904200000","OBJECT_NAME":"STARLINK-2411","INCLINATION":"53.0554","EPOCH":"2021-10-30T09:46:11.756928","MEAN_MOTION_DOT":"0.00001045","PERIAPSIS":"545.835","ELEMENT_SET_NO":"999","PERIOD":"95.592"},{"MEAN_ELEMENT_THEORY":"SGP4","NORAD_CAT_ID":"47827","CENTER_NAME":"EARTH","RCS_SIZE":"LARGE","RA_OF_ASC_NODE":"185.3496","TIME_SYSTEM":"UTC","TLE_LINE1":"1 47827U 21018AS  21303.36651926  .00000911  00000-0  80077-4 0  9994","FILE":"3192905","ARG_OF_PERICENTER":"70.8887","ECCENTRICITY":"0.00018430","OBJECT_TYPE":"PAYLOAD","DECAY_DATE":null,"MEAN_MOTION_DDOT":"0.0000000000000","OBJECT_ID":"2021-018AS","EPHEMERIS_TYPE":"0","LAUNCH_DATE":"2021-03-11","SEMIMAJOR_AXIS":"6925.373","TLE_LINE2":"2 47827  53.0566 185.3496 0001843  70.8887 289.2302 15.06392170 36947","REV_AT_EPOCH":"3694","MEAN_MOTION":"15.06392170","MEAN_ANOMALY":"289.2302","SITE":"AFETR","REF_FRAME":"TEME","COUNTRY_CODE":"US","GP_ID":"188515927","APOAPSIS":"548.514","INCLINATION":"53.0566","EPOCH":"2021-10-30T08:47:47.264064","PERIOD":"95.593","ELEMENT_SET_NO":"999","MEAN_MOTION_DOT":"0.00000911","PERIAPSIS":"545.961","BSTAR":"0.00008007700000","OBJECT_NAME":"STARLINK-2413","CLASSIFICATION_TYPE":"U"},{"RCS_SIZE":"LARGE","CENTER_NAME":"EARTH","NORAD_CAT_ID":"47828","MEAN_ELEMENT_THEORY":"SGP4","ARG_OF_PERICENTER":"70.0971","FILE":"3193132","TLE_LINE1":"1 47828U 21018AT  21303.45776573  .00002778  00000-0  20534-3 0  9995","TIME_SYSTEM":"UTC","RA_OF_ASC_NODE":"204.9351","DECAY_DATE":null,"OBJECT_TYPE":"PAYLOAD","ECCENTRICITY":"0.00017520","SEMIMAJOR_AXIS":"6925.348","LAUNCH_DATE":"2021-03-11","EPHEMERIS_TYPE":"0","OBJECT_ID":"2021-018AT","MEAN_MOTION_DDOT":"0.0000000000000","REF_FRAME":"TEME","SITE":"AFETR","MEAN_ANOMALY":"290.0207","MEAN_MOTION":"15.06400143","REV_AT_EPOCH":"3628","TLE_LINE2":"2 47828  53.0555 204.9351 0001752  70.0971 290.0207 15.06400143 36280","APOAPSIS":"548.426","GP_ID":"188522248","COUNTRY_CODE":"US","PERIAPSIS":"546.000","MEAN_MOTION_DOT":"0.00002778","ELEMENT_SET_NO":"999","PERIOD":"95.592","INCLINATION":"53.0555","EPOCH":"2021-10-30T10:59:10.959072","CLASSIFICATION_TYPE":"U","OBJECT_NAME":"STARLINK-2415","BSTAR":"0.00020534000000"},{"OBJECT_ID":"2021-018AU","MEAN_MOTION_DDOT":"0.0000000000000","LAUNCH_DATE":"2021-03-11","SEMIMAJOR_AXIS":"6925.329","EPHEMERIS_TYPE":"0","ECCENTRICITY":"0.00018500","OBJECT_TYPE":"PAYLOAD","DECAY_DATE":null,"FILE":"3192905","ARG_OF_PERICENTER":"67.7769","RA_OF_ASC_NODE":"206.0481","TIME_SYSTEM":"UTC","TLE_LINE1":"1 47829U 21018AU  21303.21080220  .00002400  00000-0  17995-3 0  9996","CENTER_NAME":"EARTH","RCS_SIZE":"MEDIUM","NORAD_CAT_ID":"47829","MEAN_ELEMENT_THEORY":"SGP4","OBJECT_NAME":"STARLINK-2416","BSTAR":"0.00017995000000","CLASSIFICATION_TYPE":"U","PERIOD":"95.592","ELEMENT_SET_NO":"999","PERIAPSIS":"545.912","MEAN_MOTION_DOT":"0.00002400","INCLINATION":"53.0549","EPOCH":"2021-10-30T05:03:33.310080","APOAPSIS":"548.475","COUNTRY_CODE":"US","GP_ID":"188514927","MEAN_MOTION":"15.06406542","TLE_LINE2":"2 47829  53.0549 206.0481 0001850  67.7769 292.3416 15.06406542 36576","REV_AT_EPOCH":"3657","SITE":"AFETR","REF_FRAME":"TEME","MEAN_ANOMALY":"292.3416"}];
